SL-14 R/B               
1 21423U 91042B   26051.94371856  .00000387  00000+0  46003-4 0  9999
2 21423  82.4897 235.8880 0015694 298.7058  61.2578 14.81811157850593
ERS-1                   
1 21574U 91050A   26052.01461333  .00000257  00000+0  97149-4 0  9997
2 21574  98.7892  69.8298 0030943 251.1284 108.6547 14.39434882813333
ARIANE 40 R/B           
1 21610U 91050F   26052.10522470  .00000242  00000+0  85060-4 0  9991
2 21610  98.2050 104.9612 0004267 117.4953 242.6672 14.42880394816601
INTERCOSMOS 25          
1 21819U 91086A   26052.14590293  .00000836  00000+0  15831-3 0  9990
2 21819  82.6078 320.0057 1487017 152.5696 216.2590 12.11949022494680
SL-8 R/B                
1 21876U 92008B   26052.15324284  .00000019  00000+0  35728-5 0  9996
2 21876  82.9243 280.0817 0034617 178.7705 296.3909 13.75970056707146
SL-8 R/B                
1 21938U 92020B   26051.83513201  .00000096  00000+0  84222-4 0  9999
2 21938  82.9342 166.2713 0028469 347.4087 164.9012 13.75547222698814
USA 81                  
1 21949U 92023A   26051.75319859  .00000184  00000+0  60684-4 0  9992
2 21949  85.0114 141.2085 0002737  93.4039 266.7466 14.32361608 92365
COSMOS 2219             
1 22219U 92076A   26052.10971883  .00000298  00000+0  18099-3 0  9990
2 22219  71.0589  52.7281 0019763 229.2803 130.6604 14.14080913716033
SL-16 R/B               
1 22220U 92076B   26051.90341870  .00000029  00000+0  38196-4 0  9999
2 22220  70.9978 223.7324 0011093 127.2464 342.8080 14.16854769719455
COSMOS 2221             
1 22236U 92080A   26052.11815655  .00001571  00000+0  13717-3 0  9996
2 22236  82.5036 294.9545 0012909 246.9602 113.0259 14.96131956778311
SL-16 R/B               
1 22285U 92093B   26052.13202918  .00000278  00000+0  16666-3 0  9997
2 22285  71.0218  39.0240 0005708 311.4671  48.5961 14.15446861710811
COSMOS 2228             
1 22286U 92094A   26052.07855773  .00001692  00000+0  14402-3 0  9992
2 22286  82.5145 253.2181 0018075   2.4924 357.6384 14.97103580773574
