CCSDS_OMM_VERS = 2.0
CREATION_DATE  = 
ORIGINATOR     = 

OBJECT_NAME    = SL-14 R/B
OBJECT_ID      = 1991-042B
CENTER_NAME    = EARTH
REF_FRAME      = TEME
TIME_SYSTEM    = UTC
MEAN_ELEMENT_THEORY = SGP/SGP4

EPOCH          = 2026-02-20T22:38:57.283584
MEAN_MOTION    = 14.81811157
ECCENTRICITY   = .0015694
INCLINATION    = 82.4897
RA_OF_ASC_NODE = 235.8880
ARG_OF_PERICENTER = 298.7058
MEAN_ANOMALY   = 61.2578

EPHEMERIS_TYPE = 0
CLASSIFICATION_TYPE = U
NORAD_CAT_ID   = 21423
ELEMENT_SET_NO = 999
REV_AT_EPOCH   = 85059
BSTAR          = .46003E-4
MEAN_MOTION_DOT = .387E-5
MEAN_MOTION_DDOT = 0

CCSDS_OMM_VERS = 2.0
CREATION_DATE  = 
ORIGINATOR     = 

OBJECT_NAME    = ERS-1
OBJECT_ID      = 1991-050A
CENTER_NAME    = EARTH
REF_FRAME      = TEME
TIME_SYSTEM    = UTC
MEAN_ELEMENT_THEORY = SGP/SGP4

EPOCH          = 2026-02-21T00:21:02.591712
MEAN_MOTION    = 14.39434882
ECCENTRICITY   = .0030943
INCLINATION    = 98.7892
RA_OF_ASC_NODE = 69.8298
ARG_OF_PERICENTER = 251.1284
MEAN_ANOMALY   = 108.6547

EPHEMERIS_TYPE = 0
CLASSIFICATION_TYPE = U
NORAD_CAT_ID   = 21574
ELEMENT_SET_NO = 999
REV_AT_EPOCH   = 81333
BSTAR          = .97149E-4
MEAN_MOTION_DOT = .257E-5
MEAN_MOTION_DDOT = 0

CCSDS_OMM_VERS = 2.0
CREATION_DATE  = 
ORIGINATOR     = 

OBJECT_NAME    = ARIANE 40 R/B
OBJECT_ID      = 1991-050F
CENTER_NAME    = EARTH
REF_FRAME      = TEME
TIME_SYSTEM    = UTC
MEAN_ELEMENT_THEORY = SGP/SGP4

EPOCH          = 2026-02-21T02:31:31.414080
MEAN_MOTION    = 14.42880394
ECCENTRICITY   = .0004267
INCLINATION    = 98.2050
RA_OF_ASC_NODE = 104.9612
ARG_OF_PERICENTER = 117.4953
MEAN_ANOMALY   = 242.6672

EPHEMERIS_TYPE = 0
CLASSIFICATION_TYPE = U
NORAD_CAT_ID   = 21610
ELEMENT_SET_NO = 999
REV_AT_EPOCH   = 81660
BSTAR          = .8506E-4
MEAN_MOTION_DOT = .242E-5
MEAN_MOTION_DDOT = 0

CCSDS_OMM_VERS = 2.0
CREATION_DATE  = 
ORIGINATOR     = 

OBJECT_NAME    = INTERCOSMOS 25
OBJECT_ID      = 1991-086A
CENTER_NAME    = EARTH
REF_FRAME      = TEME
TIME_SYSTEM    = UTC
MEAN_ELEMENT_THEORY = SGP/SGP4

EPOCH          = 2026-02-21T03:30:06.013152
MEAN_MOTION    = 12.11949022
ECCENTRICITY   = .1487017
INCLINATION    = 82.6078
RA_OF_ASC_NODE = 320.0057
ARG_OF_PERICENTER = 152.5696
MEAN_ANOMALY   = 216.2590

EPHEMERIS_TYPE = 0
CLASSIFICATION_TYPE = U
NORAD_CAT_ID   = 21819
ELEMENT_SET_NO = 999
REV_AT_EPOCH   = 49468
BSTAR          = .15831E-3
MEAN_MOTION_DOT = .836E-5
MEAN_MOTION_DDOT = 0

CCSDS_OMM_VERS = 2.0
CREATION_DATE  = 
ORIGINATOR     = 

OBJECT_NAME    = SL-8 R/B
OBJECT_ID      = 1992-008B
CENTER_NAME    = EARTH
REF_FRAME      = TEME
TIME_SYSTEM    = UTC
MEAN_ELEMENT_THEORY = SGP/SGP4

EPOCH          = 2026-02-21T03:40:40.181376
MEAN_MOTION    = 13.75970056
ECCENTRICITY   = .0034617
INCLINATION    = 82.9243
RA_OF_ASC_NODE = 280.0817
ARG_OF_PERICENTER = 178.7705
MEAN_ANOMALY   = 296.3909

EPHEMERIS_TYPE = 0
CLASSIFICATION_TYPE = U
NORAD_CAT_ID   = 21876
ELEMENT_SET_NO = 999
REV_AT_EPOCH   = 70714
BSTAR          = .35728E-5
MEAN_MOTION_DOT = .19E-6
MEAN_MOTION_DDOT = 0

CCSDS_OMM_VERS = 2.0
CREATION_DATE  = 
ORIGINATOR     = 

OBJECT_NAME    = SL-8 R/B
OBJECT_ID      = 1992-020B
CENTER_NAME    = EARTH
REF_FRAME      = TEME
TIME_SYSTEM    = UTC
MEAN_ELEMENT_THEORY = SGP/SGP4

EPOCH          = 2026-02-20T20:02:35.405664
MEAN_MOTION    = 13.75547222
ECCENTRICITY   = .0028469
INCLINATION    = 82.9342
RA_OF_ASC_NODE = 166.2713
ARG_OF_PERICENTER = 347.4087
MEAN_ANOMALY   = 164.9012

EPHEMERIS_TYPE = 0
CLASSIFICATION_TYPE = U
NORAD_CAT_ID   = 21938
ELEMENT_SET_NO = 999
REV_AT_EPOCH   = 69881
BSTAR          = .84222E-4
MEAN_MOTION_DOT = .96E-6
MEAN_MOTION_DDOT = 0

CCSDS_OMM_VERS = 2.0
CREATION_DATE  = 
ORIGINATOR     = 

OBJECT_NAME    = USA 81
OBJECT_ID      = 1992-023A
CENTER_NAME    = EARTH
REF_FRAME      = TEME
TIME_SYSTEM    = UTC
MEAN_ELEMENT_THEORY = SGP/SGP4

EPOCH          = 2026-02-20T18:04:36.358176
MEAN_MOTION    = 14.32361608
ECCENTRICITY   = .00027379
INCLINATION    = 85.0114
RA_OF_ASC_NODE = 141.2085
ARG_OF_PERICENTER = 93.4039
MEAN_ANOMALY   = 266.7466

EPHEMERIS_TYPE = 0
CLASSIFICATION_TYPE = U
NORAD_CAT_ID   = 21949
ELEMENT_SET_NO = 999
REV_AT_EPOCH   = 9236
BSTAR          = .60683598E-4
MEAN_MOTION_DOT = .184E-5
MEAN_MOTION_DDOT = 0

CCSDS_OMM_VERS = 2.0
CREATION_DATE  = 
ORIGINATOR     = 

OBJECT_NAME    = COSMOS 2219
OBJECT_ID      = 1992-076A
CENTER_NAME    = EARTH
REF_FRAME      = TEME
TIME_SYSTEM    = UTC
MEAN_ELEMENT_THEORY = SGP/SGP4

EPOCH          = 2026-02-21T02:37:59.706912
MEAN_MOTION    = 14.14080913
ECCENTRICITY   = .0019763
INCLINATION    = 71.0589
RA_OF_ASC_NODE = 52.7281
ARG_OF_PERICENTER = 229.2803
MEAN_ANOMALY   = 130.6604

EPHEMERIS_TYPE = 0
CLASSIFICATION_TYPE = U
NORAD_CAT_ID   = 22219
ELEMENT_SET_NO = 999
REV_AT_EPOCH   = 71603
BSTAR          = .18099E-3
MEAN_MOTION_DOT = .298E-5
MEAN_MOTION_DDOT = 0

CCSDS_OMM_VERS = 2.0
CREATION_DATE  = 
ORIGINATOR     = 

OBJECT_NAME    = SL-16 R/B
OBJECT_ID      = 1992-076B
CENTER_NAME    = EARTH
REF_FRAME      = TEME
TIME_SYSTEM    = UTC
MEAN_ELEMENT_THEORY = SGP/SGP4

EPOCH          = 2026-02-20T21:40:55.375680
MEAN_MOTION    = 14.16854769
ECCENTRICITY   = .0011093
INCLINATION    = 70.9978
RA_OF_ASC_NODE = 223.7324
ARG_OF_PERICENTER = 127.2464
MEAN_ANOMALY   = 342.8080

EPHEMERIS_TYPE = 0
CLASSIFICATION_TYPE = U
NORAD_CAT_ID   = 22220
ELEMENT_SET_NO = 999
REV_AT_EPOCH   = 71945
BSTAR          = .38196E-4
MEAN_MOTION_DOT = .29E-6
MEAN_MOTION_DDOT = 0

CCSDS_OMM_VERS = 2.0
CREATION_DATE  = 
ORIGINATOR     = 

OBJECT_NAME    = COSMOS 2221
OBJECT_ID      = 1992-080A
CENTER_NAME    = EARTH
REF_FRAME      = TEME
TIME_SYSTEM    = UTC
MEAN_ELEMENT_THEORY = SGP/SGP4

EPOCH          = 2026-02-21T02:50:08.725920
MEAN_MOTION    = 14.96131956
ECCENTRICITY   = .0012909
INCLINATION    = 82.5036
RA_OF_ASC_NODE = 294.9545
ARG_OF_PERICENTER = 246.9602
MEAN_ANOMALY   = 113.0259

EPHEMERIS_TYPE = 0
CLASSIFICATION_TYPE = U
NORAD_CAT_ID   = 22236
ELEMENT_SET_NO = 999
REV_AT_EPOCH   = 77831
BSTAR          = .13717E-3
MEAN_MOTION_DOT = .1571E-4
MEAN_MOTION_DDOT = 0

CCSDS_OMM_VERS = 2.0
CREATION_DATE  = 
ORIGINATOR     = 

OBJECT_NAME    = SL-16 R/B
OBJECT_ID      = 1992-093B
CENTER_NAME    = EARTH
REF_FRAME      = TEME
TIME_SYSTEM    = UTC
MEAN_ELEMENT_THEORY = SGP/SGP4

EPOCH          = 2026-02-21T03:10:07.321152
MEAN_MOTION    = 14.15446861
ECCENTRICITY   = .0005708
INCLINATION    = 71.0218
RA_OF_ASC_NODE = 39.0240
ARG_OF_PERICENTER = 311.4671
MEAN_ANOMALY   = 48.5961

EPHEMERIS_TYPE = 0
CLASSIFICATION_TYPE = U
NORAD_CAT_ID   = 22285
ELEMENT_SET_NO = 999
REV_AT_EPOCH   = 71081
BSTAR          = .16666E-3
MEAN_MOTION_DOT = .278E-5
MEAN_MOTION_DDOT = 0

CCSDS_OMM_VERS = 2.0
CREATION_DATE  = 
ORIGINATOR     = 

OBJECT_NAME    = COSMOS 2228
OBJECT_ID      = 1992-094A
CENTER_NAME    = EARTH
REF_FRAME      = TEME
TIME_SYSTEM    = UTC
MEAN_ELEMENT_THEORY = SGP/SGP4

EPOCH          = 2026-02-21T01:53:07.387872
MEAN_MOTION    = 14.97103580
ECCENTRICITY   = .0018075
INCLINATION    = 82.5145
RA_OF_ASC_NODE = 253.2181
ARG_OF_PERICENTER = 2.4924
MEAN_ANOMALY   = 357.6384

EPHEMERIS_TYPE = 0
CLASSIFICATION_TYPE = U
NORAD_CAT_ID   = 22286
ELEMENT_SET_NO = 999
REV_AT_EPOCH   = 77357
BSTAR          = .14402E-3
MEAN_MOTION_DOT = .1692E-4
MEAN_MOTION_DDOT = 0

